{"ADCS":"3-axis stabilized.\nStar trackers, GPS receivers, reaction wheels.\nAutonomous orbit control maintaining 500m tube-shaped corridor for InSAR coherence.\nYaw-around maneuver capability for left/right looking.\nAttitude maneuver to observation in <2 minutes.\nObservation direction change (right/left) in <3 minutes.","COLOR":null,"TRANSMITTER_FREQUENCIES":"S-band: TT&C uplink/downlink.\nX-band: Mission data downlink at 800/400/200 Mbit/s (16QAM/QPSK).\nKa-band: Mission data relay at 278 Mbit/s via DRTS/Kodama data relay satellite.\nPALSAR-2 SAR: L-band 1257.5 MHz (±21 MHz).","MAJOR_EVENTS":"2014-05-24: Launch on H-IIA F24 from Tanegashima with secondary payloads (Rising-2, UNIFORM-1, SOCRATES, SPROUT).\n2014-07-04 to 2014-07-14: CIRC initial functional verification phase.\n2014-08: Autonomous orbit control system activated (world's first for regular EO operations).\n2014-08-04: PALSAR-2 regular observations begin.\n2019-05: Exceeded 5-year design lifetime, entered extended mission.\n2023-03-07: Sister mission ALOS-3 lost in H3 TF1 launch failure.\n2024-07-01: ALOS-4 (Daichi-4) launched, begins constellation operations with ALOS-2.\n2025-03: JAXA developed SAR foundation model using ALOS-2 observation data.\n2025-12-07: ALOS-2 observation data still being accumulated per JAXA records.\n2026-03-05: ALOS-2 tasking order deadline updated by PASCO, confirming continued operations.","MATERIAL_COMPOSITION":null,"CONSTELLATION_NAME":"ALOS/Daichi series (operating in constellation with ALOS-4 since July 2024)","RELATED_SATELLITES":"Predecessor: ALOS/Daichi (2006-2011, NORAD 28931) — carried PALSAR, PRISM, AVNIR-2.\nSister (optical, lost): ALOS-3/Daichi-3 — failed to reach orbit 2023-03-07 on H3 TF1.\nSuccessor (SAR): ALOS-4/Daichi-4 — launched 2024-07-01, carries PALSAR-3, constellation with ALOS-2.\nHeritage: JERS-1/FUYO-1 (1992-1998) — first Japanese L-band SAR.\nCo-launched secondaries: Rising-2, UNIFORM-1, SOCRATES, SPROUT.","SOURCES":["ttps://global.jaxa.jp/projects/sat/alos2/\nhttps://www.eoportal.org/satellite-missions/alos-2\nhttps://en.wikipedia.org/wiki/ALOS-2\nhttps://database.eohandbook.com/database/missionsummary.aspx?missionID=629\nhttps://space.oscar.wmo.int/satellites/view/alos_2\nhttps://alos-pasco.com/en/alos-2/\nhttps://www.eorc.jaxa.jp/ALOS-2/en/about/overview.ht"],"NORAD_CAT_ID":"39766","OBJECT_ID":"2014-029A","NAME":"ALOS-2 (Advanced Land Observing Satellite-2)","ALT_NAME":"Daichi-2","BUS":"ALOS (shared bus design with ALOS-3)","CONFIGURATION":null,"COUNTRY":"JPN","LENGTH":"9.9","DIAMETER":"3.7","SPAN":"16.5","DRY_MASS":"2000","EQUIPMENT":"PALSAR-2: L-band SAR at 1257.5 MHz (±21 MHz), active phased array antenna (APAA).\n- Spotlight mode: 1x3m resolution, 25km swath.\n- Stripmap mode: 3-10m resolution, 50-70km swath.\n- ScanSAR mode: 60-100m resolution, 350-490km swath.\n- Incidence angle 8°-70°, left/right looking capability.\n\nCIRC: Uncooled microbolometer thermal infrared camera.\n- ~3 kg mass, <20W power, 200m ground resolution.\n- Wildfire, volcano, and heat island detection.\n- Mounted at 30° off-nadir.\n\nSPAISE2: Satellite AIS receiver developed with NEC Corporation.\n\nDual-frequency GPS receivers (L1/L2 bands).","LAUNCH_DATE":"2014-05-24T03:05:00.000Z","STABLE_DATE":"2014-05-24T00:00:00.000Z","LAUNCH_MASS":"2120","LAUNCH_SITE":"TNSC (Tanegashima Space Center), Japan","LAUNCH_PAD":"Yoshinobu Launch Complex","LAUNCH_VEHICLE":"H-IIA F24 (202 configuration)","LIFETIME":"5 years design life (7 years target).\nStill operational as of March 2026, exceeding 11 years on orbit.\nCEOS EOL listed as December 2025 but tasking orders still accepted as of March 2026.","MANUFACTURER":"MELCO (Mitsubishi Electric Corporation)","MISSION":"Earth Observation, SAR (Synthetic Aperture Radar), Disaster Monitoring, Cartography,\nEnvironmental Monitoring, Forest Monitoring, Ship Tracking (AIS), Thermal Infrared Imaging","MOTOR":"AOCS with four redundant 4N hydrazine thrusters for orbit maintenance.\nAutonomous orbit control within 500m tube-shaped corridor.","OWNER":"JAXA (Japan Aerospace Exploration Agency)","PAYLOAD":"PALSAR-2 (Phased Array type L-band Synthetic Aperture Radar-2).\nCIRC (Compact InfraRed Camera).\nSPAISE2 (Space-based AIS Experiment 2).","POWER":"2 deployable solar arrays, batteries","PURPOSE":"Disaster monitoring and rapid damage assessment.\nLand deformation and crustal movement detection via InSAR.\nNational land and infrastructure mapping.\nCultivated area monitoring.\nGlobal tropical rainforest monitoring for carbon sink identification.\nNaval vessel tracking via AIS.\nWildfire detection via CIRC thermal imager.\nVolcanic activity monitoring.\nUrban heat island analysis.","RCS":"4.096","SHAPE":"Box + 2 deployable solar array panels","VMAG":null,"STATUS":"+","TYPE":1,"INCLINATION":97.9205,"RA_OF_ASC_NODE":208.5723,"MEAN_MOTION":14.79462799,"ARG_OF_PERICENTER":88.3747,"MEAN_ANOMALY":271.7671,"EPOCH":"2026-04-20T14:00:24.322Z","TLE_LINE_1":"1 39766U 14029A   26110.58361484  .00000587  00000-0  85536-4 0  9997","TLE_LINE_2":"2 39766  97.9205 208.5723 0001800  88.3747 271.7671 14.79462799643066","DECAY_DATE":null,"summary":"ALOS-2 (Advanced Land Observing Satellite-2), also known as Daichi-2, is a Japanese L-band SAR Earth observation satellite operated by JAXA and manufactured by Mitsubishi Electric Corporation.\n\nLaunched on May 24, 2014, from the Yoshinobu Launch Complex at Tanegashima Space Center aboard an H-IIA F24 rocket, it operates in a 628 km sun-synchronous orbit with a 97.9° inclination and 14-day repeat cycle. The spacecraft measures 9.9 m in length, 3.7 m in diameter, and 16.5 m span with deployed solar arrays, with a launch mass of 2,120 kg and dry mass of 2,000 kg.\n\nIts primary instrument, PALSAR-2, is an advanced L-band (1257.5 MHz) synthetic aperture radar with active phased array antenna technology providing spotlight (1x3 m), stripmap (3-10 m), and ScanSAR (60-100 m) observation modes across a maximum observable swath of 2,320 km with both left and right looking capability.\n\nALOS-2 also carries CIRC, an uncooled thermal infrared camera for wildfire and volcanic activity detection, and SPAISE2, a satellite-based AIS receiver for maritime vessel tracking developed with NEC Corporation.\n\nThe satellite features autonomous precision orbit control within a 500 m tube-shaped corridor — a world first for regular Earth observation operations — enabling high-coherence repeat-pass InSAR. Mission data is downlinked via X-band (up to 800 Mbit/s) to ground stations and Ka-band (278 Mbit/s) through the DRTS data relay satellite, with S-band used for TT&C.\n\nALOS-2 has far exceeded its 5-year design life (7-year target), remaining operational past 11 years on orbit. Since July 2024, it operates in constellation with its successor ALOS-4 (Daichi-4, carrying PALSAR-3), providing combined L-band SAR coverage for disaster monitoring, land deformation detection, cartography, agricultural monitoring, and global forest carbon sink assessment.\n\nThe ALOS L-band SAR heritage traces back through ALOS (2006-2011) to JERS-1/FUYO-1 (1992-1998), representing over three decades of Japanese L-band radar Earth observation.","reference_urls":"https://global.jaxa.jp/projects/sat/alos2/\nhttps://www.eoportal.org/satellite-missions/alos-2\nhttps://en.wikipedia.org/wiki/ALOS-2\nhttps://database.eohandbook.com/database/missionsummary.aspx?missionID=629\nhttps://alos-pasco.com/en/alos-2/","anomaly_flags":null,"anomaly_resolved":0,"last_reviewed":"2026-03-13T02:53:55.350Z"}